[{"OBJECT_NAME":"UNKNOWN","OBJECT_ID":"","EPOCH":"2026-03-21T23:50:04.877664","MEAN_MOTION":13.29896686,"ECCENTRICITY":0.0689281,"INCLINATION":61.6077,"RA_OF_ASC_NODE":244.5581,"ARG_OF_PERICENTER":326.6082,"MEAN_ANOMALY":29.3177,"EPHEMERIS_TYPE":0,"CLASSIFICATION_TYPE":"U","NORAD_CAT_ID":82698,"ELEMENT_SET_NO":999,"REV_AT_EPOCH":55157,"BSTAR":0.00041623,"MEAN_MOTION_DOT":6.34e-6,"MEAN_MOTION_DDOT":0},{"OBJECT_NAME":"UNKNOWN","OBJECT_ID":"","EPOCH":"2026-03-20T07:20:54.944736","MEAN_MOTION":12.90760488,"ECCENTRICITY":0.0062446,"INCLINATION":102.1625,"RA_OF_ASC_NODE":296.9119,"ARG_OF_PERICENTER":84.3928,"MEAN_ANOMALY":276.4281,"EPHEMERIS_TYPE":0,"CLASSIFICATION_TYPE":"U","NORAD_CAT_ID":82708,"ELEMENT_SET_NO":999,"REV_AT_EPOCH":53610,"BSTAR":0.0026577,"MEAN_MOTION_DOT":6.56e-6,"MEAN_MOTION_DDOT":0},{"OBJECT_NAME":"UNKNOWN","OBJECT_ID":"","EPOCH":"2026-03-23T22:02:44.745216","MEAN_MOTION":12.17870501,"ECCENTRICITY":0.0836249,"INCLINATION":67.9721,"RA_OF_ASC_NODE":330.9131,"ARG_OF_PERICENTER":301.807,"MEAN_ANOMALY":50.4104,"EPHEMERIS_TYPE":0,"CLASSIFICATION_TYPE":"U","NORAD_CAT_ID":82729,"ELEMENT_SET_NO":999,"REV_AT_EPOCH":54752,"BSTAR":-0.00042226,"MEAN_MOTION_DOT":-1.74e-6,"MEAN_MOTION_DDOT":0},{"OBJECT_NAME":"UNKNOWN","OBJECT_ID":"","EPOCH":"2026-03-28T09:33:08.633376","MEAN_MOTION":13.82995564,"ECCENTRICITY":0.0170028,"INCLINATION":99.0963,"RA_OF_ASC_NODE":245.172,"ARG_OF_PERICENTER":10.7511,"MEAN_ANOMALY":18.7511,"EPHEMERIS_TYPE":0,"CLASSIFICATION_TYPE":"U","NORAD_CAT_ID":82739,"ELEMENT_SET_NO":999,"REV_AT_EPOCH":62071,"BSTAR":0.00048075,"MEAN_MOTION_DOT":5.44e-6,"MEAN_MOTION_DDOT":0},{"OBJECT_NAME":"UNKNOWN","OBJECT_ID":"","EPOCH":"2026-03-28T03:30:13.155840","MEAN_MOTION":13.66535968,"ECCENTRICITY":0.0194635,"INCLINATION":102.8421,"RA_OF_ASC_NODE":161.5469,"ARG_OF_PERICENTER":31.519,"MEAN_ANOMALY":329.7433,"EPHEMERIS_TYPE":0,"CLASSIFICATION_TYPE":"U","NORAD_CAT_ID":82741,"ELEMENT_SET_NO":999,"REV_AT_EPOCH":61147,"BSTAR":0.0014351,"MEAN_MOTION_DOT":1.287e-5,"MEAN_MOTION_DDOT":0},{"OBJECT_NAME":"UNKNOWN","OBJECT_ID":"","EPOCH":"2026-03-25T14:12:38.443968","MEAN_MOTION":13.09111576,"ECCENTRICITY":0.0019213,"INCLINATION":90.3459,"RA_OF_ASC_NODE":41.4569,"ARG_OF_PERICENTER":189.3652,"MEAN_ANOMALY":170.712,"EPHEMERIS_TYPE":0,"CLASSIFICATION_TYPE":"U","NORAD_CAT_ID":82783,"ELEMENT_SET_NO":999,"REV_AT_EPOCH":51781,"BSTAR":0.00050946,"MEAN_MOTION_DOT":1.82e-6,"MEAN_MOTION_DDOT":0},{"OBJECT_NAME":"UNKNOWN","OBJECT_ID":"","EPOCH":"2026-02-28T11:33:56.602368","MEAN_MOTION":14.23311743,"ECCENTRICITY":0.0027126,"INCLINATION":82.9509,"RA_OF_ASC_NODE":129.4832,"ARG_OF_PERICENTER":292.8683,"MEAN_ANOMALY":82.6977,"EPHEMERIS_TYPE":0,"CLASSIFICATION_TYPE":"U","NORAD_CAT_ID":82798,"ELEMENT_SET_NO":999,"REV_AT_EPOCH":32343,"BSTAR":0.00083774,"MEAN_MOTION_DOT":1.92e-5,"MEAN_MOTION_DDOT":0},{"OBJECT_NAME":"UNKNOWN","OBJECT_ID":"","EPOCH":"2026-03-26T22:58:44.010912","MEAN_MOTION":14.3584723,"ECCENTRICITY":0.0048687,"INCLINATION":99.7965,"RA_OF_ASC_NODE":265.6425,"ARG_OF_PERICENTER":79.2026,"MEAN_ANOMALY":281.4631,"EPHEMERIS_TYPE":0,"CLASSIFICATION_TYPE":"U","NORAD_CAT_ID":82820,"ELEMENT_SET_NO":999,"REV_AT_EPOCH":64058,"BSTAR":0.00099701,"MEAN_MOTION_DOT":2.874e-5,"MEAN_MOTION_DDOT":0},{"OBJECT_NAME":"UNKNOWN","OBJECT_ID":"","EPOCH":"2026-03-25T11:43:14.890656","MEAN_MOTION":11.29179881,"ECCENTRICITY":0.0175129,"INCLINATION":65.0952,"RA_OF_ASC_NODE":253.4585,"ARG_OF_PERICENTER":314.9407,"MEAN_ANOMALY":65.8445,"EPHEMERIS_TYPE":0,"CLASSIFICATION_TYPE":"U","NORAD_CAT_ID":82829,"ELEMENT_SET_NO":999,"REV_AT_EPOCH":49768,"BSTAR":0.0069735,"MEAN_MOTION_DOT":2.1e-6,"MEAN_MOTION_DDOT":0},{"OBJECT_NAME":"UNKNOWN","OBJECT_ID":"","EPOCH":"2026-03-25T23:32:18.602304","MEAN_MOTION":13.88237661,"ECCENTRICITY":0.0131694,"INCLINATION":82.6915,"RA_OF_ASC_NODE":343.6072,"ARG_OF_PERICENTER":349.2066,"MEAN_ANOMALY":10.6274,"EPHEMERIS_TYPE":0,"CLASSIFICATION_TYPE":"U","NORAD_CAT_ID":82854,"ELEMENT_SET_NO":999,"REV_AT_EPOCH":62212,"BSTAR":0.0013992,"MEAN_MOTION_DOT":1.806e-5,"MEAN_MOTION_DDOT":0},{"OBJECT_NAME":"UNKNOWN","OBJECT_ID":"","EPOCH":"2026-03-28T05:19:50.288448","MEAN_MOTION":14.25290202,"ECCENTRICITY":0.0040249,"INCLINATION":99.9956,"RA_OF_ASC_NODE":0.8819,"ARG_OF_PERICENTER":351.9052,"MEAN_ANOMALY":8.1469,"EPHEMERIS_TYPE":0,"CLASSIFICATION_TYPE":"U","NORAD_CAT_ID":82873,"ELEMENT_SET_NO":999,"REV_AT_EPOCH":63625,"BSTAR":0.0016625,"MEAN_MOTION_DOT":3.893e-5,"MEAN_MOTION_DDOT":0},{"OBJECT_NAME":"UNKNOWN","OBJECT_ID":"","EPOCH":"2026-03-25T04:49:56.312544","MEAN_MOTION":14.15354708,"ECCENTRICITY":0.0377138,"INCLINATION":98.6899,"RA_OF_ASC_NODE":70.1026,"ARG_OF_PERICENTER":349.2937,"MEAN_ANOMALY":10.0367,"EPHEMERIS_TYPE":0,"CLASSIFICATION_TYPE":"U","NORAD_CAT_ID":82875,"ELEMENT_SET_NO":999,"REV_AT_EPOCH":55896,"BSTAR":0.00033149,"MEAN_MOTION_DOT":1.236e-5,"MEAN_MOTION_DDOT":0},{"OBJECT_NAME":"UNKNOWN","OBJECT_ID":"","EPOCH":"2026-03-28T01:35:17.946816","MEAN_MOTION":14.33640646,"ECCENTRICITY":0.0025232,"INCLINATION":98.9606,"RA_OF_ASC_NODE":210.7027,"ARG_OF_PERICENTER":104.5784,"MEAN_ANOMALY":255.82,"EPHEMERIS_TYPE":0,"CLASSIFICATION_TYPE":"U","NORAD_CAT_ID":82893,"ELEMENT_SET_NO":999,"REV_AT_EPOCH":43905,"BSTAR":0.002906,"MEAN_MOTION_DOT":8.046e-5,"MEAN_MOTION_DDOT":0},{"OBJECT_NAME":"UNKNOWN","OBJECT_ID":"","EPOCH":"2026-03-25T06:59:52.506816","MEAN_MOTION":13.28455214,"ECCENTRICITY":0.0770106,"INCLINATION":65.8336,"RA_OF_ASC_NODE":297.7839,"ARG_OF_PERICENTER":222.3175,"MEAN_ANOMALY":131.5945,"EPHEMERIS_TYPE":0,"CLASSIFICATION_TYPE":"U","NORAD_CAT_ID":82912,"ELEMENT_SET_NO":999,"REV_AT_EPOCH":59294,"BSTAR":0.00074405,"MEAN_MOTION_DOT":1.738e-5,"MEAN_MOTION_DDOT":0},{"OBJECT_NAME":"UNKNOWN","OBJECT_ID":"","EPOCH":"2026-03-25T09:17:17.270016","MEAN_MOTION":13.26472724,"ECCENTRICITY":0.0408835,"INCLINATION":99.8227,"RA_OF_ASC_NODE":238.6265,"ARG_OF_PERICENTER":127.4248,"MEAN_ANOMALY":236.4817,"EPHEMERIS_TYPE":0,"CLASSIFICATION_TYPE":"U","NORAD_CAT_ID":82961,"ELEMENT_SET_NO":999,"REV_AT_EPOCH":56930,"BSTAR":0.012316,"MEAN_MOTION_DOT":8.543e-5,"MEAN_MOTION_DDOT":0},{"OBJECT_NAME":"UNKNOWN","OBJECT_ID":"","EPOCH":"2026-03-13T16:17:22.427520","MEAN_MOTION":13.60232436,"ECCENTRICITY":0.0003543,"INCLINATION":100.1074,"RA_OF_ASC_NODE":160.1438,"ARG_OF_PERICENTER":183.0318,"MEAN_ANOMALY":177.0799,"EPHEMERIS_TYPE":0,"CLASSIFICATION_TYPE":"U","NORAD_CAT_ID":82965,"ELEMENT_SET_NO":999,"REV_AT_EPOCH":53681,"BSTAR":0.0015749,"MEAN_MOTION_DOT":1.132e-5,"MEAN_MOTION_DDOT":0},{"OBJECT_NAME":"UNKNOWN","OBJECT_ID":"","EPOCH":"2026-03-27T18:21:47.276064","MEAN_MOTION":0.99115112,"ECCENTRICITY":0.0122025,"INCLINATION":5.9266,"RA_OF_ASC_NODE":289.7139,"ARG_OF_PERICENTER":254.2065,"MEAN_ANOMALY":301.8738,"EPHEMERIS_TYPE":0,"CLASSIFICATION_TYPE":"U","NORAD_CAT_ID":83903,"ELEMENT_SET_NO":999,"REV_AT_EPOCH":4470,"BSTAR":0,"MEAN_MOTION_DOT":-5.8e-7,"MEAN_MOTION_DDOT":0}]
