UNKNOWN                 
1 82698U          26080.99311201  .00000634  00000+0  41623-3 0  9996
2 82698  61.6077 244.5581 0689281 326.6082  29.3177 13.29896686551572
UNKNOWN                 
1 82708U          26079.30619149  .00000656  00000+0  26577-2 0  9997
2 82708 102.1625 296.9119 0062446  84.3928 276.4281 12.90760488536107
UNKNOWN                 
1 82729U          26082.91857344 -.00000174  00000+0 -42226-3 0  9999
2 82729  67.9721 330.9131 0836249 301.8070  50.4104 12.17870501547522
UNKNOWN                 
1 82739U          26087.39801659  .00000544  00000+0  48075-3 0  9992
2 82739  99.0963 245.1720 0170028  10.7511  18.7511 13.82995564620712
UNKNOWN                 
1 82741U          26087.14598560  .00001287  00000+0  14351-2 0  9996
2 82741 102.8421 161.5469 0194635  31.5190 329.7433 13.66535968611473
UNKNOWN                 
1 82783U          26084.59211162  .00000182  00000+0  50946-3 0  9992
2 82783  90.3459  41.4569 0019213 189.3652 170.7120 13.09111576517813
UNKNOWN                 
1 82798U          26059.48190512  .00001920  00000+0  83774-3 0  9999
2 82798  82.9509 129.4832 0027126 292.8683  82.6977 14.23311743323437
UNKNOWN                 
1 82820U          26085.95745383  .00002874  00000+0  99701-3 0  9994
2 82820  99.7965 265.6425 0048687  79.2026 281.4631 14.35847230640581
UNKNOWN                 
1 82829U          26084.48836679  .00000210  00000+0  69735-2 0  9994
2 82829  65.0952 253.4585 0175129 314.9407  65.8445 11.29179881497686
UNKNOWN                 
1 82854U          26084.98077086  .00001806  00000+0  13992-2 0  9992
2 82854  82.6915 343.6072 0131694 349.2066  10.6274 13.88237661622127
UNKNOWN                 
1 82873U          26087.22210982  .00003893  00000+0  16625-2 0  9991
2 82873  99.9956   0.8819 0040249 351.9052   8.1469 14.25290202636254
UNKNOWN                 
1 82875U          26084.20134621  .00001236  00000+0  33149-3 0  9993
2 82875  98.6899  70.1026 0377138 349.2937  10.0367 14.15354708558961
UNKNOWN                 
1 82893U          26087.06617994  .00008046  00000+0  29060-2 0  9991
2 82893  98.9606 210.7027 0025232 104.5784 255.8200 14.33640646439052
UNKNOWN                 
1 82912U          26084.29157994  .00001738  00000+0  74405-3 0  9999
2 82912  65.8336 297.7839 0770106 222.3175 131.5945 13.28455214592945
UNKNOWN                 
1 82961U          26084.38700544  .00008543  00000+0  12316-1 0  9990
2 82961  99.8227 238.6265 0408835 127.4248 236.4817 13.26472724569305
UNKNOWN                 
1 82965U          26072.67873180  .00001132  00000+0  15749-2 0  9991
2 82965 100.1074 160.1438 0003543 183.0318 177.0799 13.60232436536810
UNKNOWN                 
1 83903U          26086.76513051 -.00000058  00000+0  00000+0 0  9995
2 83903   5.9266 289.7139 0122025 254.2065 301.8738  0.99115112 44702
